ALOS (DAICHI)           
1 28931U 06002A   24014.83769833  .00002654  00000+0  50401-3 0  9998
2 28931  98.0180 331.4785 0000604  58.5257 301.6005 14.64984792958375
